{
  "type": "FeatureCollection",
  "features": [
    {
      "type": "Feature",
      "properties": {
        "norad_id": 58701,
        "name": "TIANMU-1 16",
        "group": "weather",
        "lat": 19.08970272968851,
        "lon": 155.75796327367297,
        "alt_km": 490.9711069637042,
        "timestamp": "2025-12-03T10:52:57.090636+00:00",
        "meta_object_name": "TIANMU-1 16",
        "meta_object_id": "2024-004B",
        "meta_epoch": "2025-12-02T23:46:09.262272",
        "meta_mean_motion": 15.24215807,
        "meta_eccentricity": 0.0005055,
        "meta_inclination": 97.4572,
        "meta_ra_of_asc_node": 157.8955,
        "meta_arg_of_pericenter": 336.3217,
        "meta_mean_anomaly": 23.7787,
        "meta_ephemeris_type": 0,
        "meta_classification_type": "U",
        "meta_norad_cat_id": 58701,
        "meta_element_set_no": 999,
        "meta_rev_at_epoch": 10586,
        "meta_bstar": 6.5909e-05,
        "meta_mean_motion_dot": 1.535e-05,
        "meta_mean_motion_ddot": 0,
        "tle_line1": "1 58701U 24004B   25336.99038498  .00001535  00000+0  65909-4 0  9996",
        "tle_line2": "2 58701  97.4572 157.8955 0005055 336.3217  23.7787 15.24215807105866"
      },
      "geometry": {
        "type": "Point",
        "coordinates": [
          155.75796327367297,
          19.08970272968851
        ]
      }
    },
    {
      "type": "Feature",
      "properties": {
        "norad_id": 58702,
        "name": "TIANMU-1 17",
        "group": "weather",
        "lat": 75.54378237468053,
        "lon": 9.309684567458662,
        "alt_km": 487.45020734575155,
        "timestamp": "2025-12-03T10:52:57.090646+00:00",
        "meta_object_name": "TIANMU-1 17",
        "meta_object_id": "2024-004C",
        "meta_epoch": "2025-12-03T04:07:58.619136",
        "meta_mean_motion": 15.24272508,
        "meta_eccentricity": 0.0004336,
        "meta_inclination": 97.4599,
        "meta_ra_of_asc_node": 158.4814,
        "meta_arg_of_pericenter": 339.8594,
        "meta_mean_anomaly": 20.2472,
        "meta_ephemeris_type": 0,
        "meta_classification_type": "U",
        "meta_norad_cat_id": 58702,
        "meta_element_set_no": 999,
        "meta_rev_at_epoch": 10588,
        "meta_bstar": 0.00038116,
        "meta_mean_motion_dot": 9.241e-05,
        "meta_mean_motion_ddot": 0,
        "tle_line1": "1 58702U 24004C   25337.17220624  .00009241  00000+0  38116-3 0  9993",
        "tle_line2": "2 58702  97.4599 158.4814 0004336 339.8594  20.2472 15.24272508105880"
      },
      "geometry": {
        "type": "Point",
        "coordinates": [
          9.309684567458662,
          75.54378237468053
        ]
      }
    },
    {
      "type": "Feature",
      "properties": {
        "norad_id": 58703,
        "name": "TIANMU-1 18",
        "group": "weather",
        "lat": -14.187162431276752,
        "lon": -22.944134251448943,
        "alt_km": 499.8289925803165,
        "timestamp": "2025-12-03T10:52:57.090660+00:00",
        "meta_object_name": "TIANMU-1 18",
        "meta_object_id": "2024-004D",
        "meta_epoch": "2025-12-03T05:18:23.166144",
        "meta_mean_motion": 15.24265506,
        "meta_eccentricity": 0.0003697,
        "meta_inclination": 97.4616,
        "meta_ra_of_asc_node": 158.7233,
        "meta_arg_of_pericenter": 341.2836,
        "meta_mean_anomaly": 18.8265,
        "meta_ephemeris_type": 0,
        "meta_classification_type": "U",
        "meta_norad_cat_id": 58703,
        "meta_element_set_no": 999,
        "meta_rev_at_epoch": 10589,
        "meta_bstar": 0.0003584,
        "meta_mean_motion_dot": 8.682e-05,
        "meta_mean_motion_ddot": 0,
        "tle_line1": "1 58703U 24004D   25337.22110146  .00008682  00000+0  35840-3 0  9996",
        "tle_line2": "2 58703  97.4616 158.7233 0003697 341.2836  18.8265 15.24265506105898"
      },
      "geometry": {
        "type": "Point",
        "coordinates": [
          -22.944134251448943,
          -14.187162431276752
        ]
      }
    },
    {
      "type": "Feature",
      "properties": {
        "norad_id": 58990,
        "name": "INSAT-3DS",
        "group": "weather",
        "lat": 0.0015320700440390963,
        "lon": -42.14621715041238,
        "alt_km": 35783.060200935324,
        "timestamp": "2025-12-03T10:52:57.090671+00:00",
        "meta_object_name": "INSAT-3DS",
        "meta_object_id": "2024-033A",
        "meta_epoch": "2025-12-03T03:52:21.155808",
        "meta_mean_motion": 1.00268846,
        "meta_eccentricity": 0.0001756,
        "meta_inclination": 0.0142,
        "meta_ra_of_asc_node": 315.2718,
        "meta_arg_of_pericenter": 303.9272,
        "meta_mean_anomaly": 313.2286,
        "meta_ephemeris_type": 0,
        "meta_classification_type": "U",
        "meta_norad_cat_id": 58990,
        "meta_element_set_no": 999,
        "meta_rev_at_epoch": 4510,
        "meta_bstar": 0,
        "meta_mean_motion_dot": 0,
        "meta_mean_motion_ddot": 0,
        "tle_line1": "1 58990U 24033A   25337.16135597  .00000000  00000+0  00000+0 0  9998",
        "tle_line2": "2 58990   0.0142 315.2718 0001756 303.9272 313.2286  1.00268846 45102"
      },
      "geometry": {
        "type": "Point",
        "coordinates": [
          -42.14621715041238,
          0.0015320700440390963
        ]
      }
    },
    {
      "type": "Feature",
      "properties": {
        "norad_id": 59051,
        "name": "METEOR-M2 4",
        "group": "weather",
        "lat": 7.599543049601219,
        "lon": 115.67573198195022,
        "alt_km": 823.728760385673,
        "timestamp": "2025-12-03T10:52:57.090683+00:00",
        "meta_object_name": "METEOR-M2 4",
        "meta_object_id": "2024-039A",
        "meta_epoch": "2025-12-03T05:00:40.320864",
        "meta_mean_motion": 14.22398848,
        "meta_eccentricity": 0.0007547,
        "meta_inclination": 98.6752,
        "meta_ra_of_asc_node": 294.2678,
        "meta_arg_of_pericenter": 24.9751,
        "meta_mean_anomaly": 335.179,
        "meta_ephemeris_type": 0,
        "meta_classification_type": "U",
        "meta_norad_cat_id": 59051,
        "meta_element_set_no": 999,
        "meta_rev_at_epoch": 9140,
        "meta_bstar": 4.6761e-05,
        "meta_mean_motion_dot": 6.1e-07,
        "meta_mean_motion_ddot": 0,
        "tle_line1": "1 59051U 24039A   25337.20880001  .00000061  00000+0  46761-4 0  9991",
        "tle_line2": "2 59051  98.6752 294.2678 0007547  24.9751 335.1790 14.22398848 91409"
      },
      "geometry": {
        "type": "Point",
        "coordinates": [
          115.67573198195022,
          7.599543049601219
        ]
      }
    },
    {
      "type": "Feature",
      "properties": {
        "norad_id": 60133,
        "name": "GOES 19",
        "group": "weather",
        "lat": 0.003947855011599681,
        "lon": 160.56567129133933,
        "alt_km": 35790.33790108236,
        "timestamp": "2025-12-03T10:52:57.090694+00:00",
        "meta_object_name": "GOES 19",
        "meta_object_id": "2024-119A",
        "meta_epoch": "2025-12-03T03:07:29.076096",
        "meta_mean_motion": 1.0027099,
        "meta_eccentricity": 0.0001301,
        "meta_inclination": 0.0154,
        "meta_ra_of_asc_node": 139.874,
        "meta_arg_of_pericenter": 157.8752,
        "meta_mean_anomaly": 106.1678,
        "meta_ephemeris_type": 0,
        "meta_classification_type": "U",
        "meta_norad_cat_id": 60133,
        "meta_element_set_no": 999,
        "meta_rev_at_epoch": 499,
        "meta_bstar": 0,
        "meta_mean_motion_dot": -2.29e-06,
        "meta_mean_motion_ddot": 0,
        "tle_line1": "1 60133U 24119A   25337.13019764 -.00000229  00000+0  00000+0 0  9993",
        "tle_line2": "2 60133   0.0154 139.8740 0001301 157.8752 106.1678  1.00270990  4996"
      },
      "geometry": {
        "type": "Point",
        "coordinates": [
          160.56567129133933,
          0.003947855011599681
        ]
      }
    },
    {
      "type": "Feature",
      "properties": {
        "norad_id": 65815,
        "name": "FENGYUN 3H",
        "group": "weather",
        "lat": 44.80540742192838,
        "lon": 105.94945184477936,
        "alt_km": 821.6212481160956,
        "timestamp": "2025-12-03T10:52:57.090705+00:00",
        "meta_object_name": "FENGYUN 3H",
        "meta_object_id": "2025-219A",
        "meta_epoch": "2025-12-03T03:29:11.863680",
        "meta_mean_motion": 14.19900151,
        "meta_eccentricity": 6.43e-05,
        "meta_inclination": 98.657,
        "meta_ra_of_asc_node": 276.9447,
        "meta_arg_of_pericenter": 70.5811,
        "meta_mean_anomaly": 289.5435,
        "meta_ephemeris_type": 0,
        "meta_classification_type": "U",
        "meta_norad_cat_id": 65815,
        "meta_element_set_no": 999,
        "meta_rev_at_epoch": 956,
        "meta_bstar": 8.4148e-05,
        "meta_mean_motion_dot": 1.35e-06,
        "meta_mean_motion_ddot": 0,
        "tle_line1": "1 65815U 25219A   25337.14527620  .00000135  00000+0  84148-4 0  9998",
        "tle_line2": "2 65815  98.6570 276.9447 0000643  70.5811 289.5435 14.19900151  9563"
      },
      "geometry": {
        "type": "Point",
        "coordinates": [
          105.94945184477936,
          44.80540742192838
        ]
      }
    }
  ]
}